{
    "links": {
        "self": "http://www.neowsapp.com/rest/v1/neo/3972415?api_key=iIulBulltgU6a56xZRHN4H3l9WmuAYTsLGpBGhQ2"
    },
    "id": "3972415",
    "neo_reference_id": "3972415",
    "name": "(2020 AO)",
    "designation": "2020 AO",
    "nasa_jpl_url": "http://ssd.jpl.nasa.gov/sbdb.cgi?sstr=3972415",
    "absolute_magnitude_h": 24.3,
    "estimated_diameter": {
        "kilometers": {
            "estimated_diameter_min": 0.0366906138,
            "estimated_diameter_max": 0.0820427065
        },
        "meters": {
            "estimated_diameter_min": 36.6906137531,
            "estimated_diameter_max": 82.0427064882
        },
        "miles": {
            "estimated_diameter_min": 0.0227984834,
            "estimated_diameter_max": 0.0509789586
        },
        "feet": {
            "estimated_diameter_min": 120.3760332259,
            "estimated_diameter_max": 269.1689931548
        }
    },
    "is_potentially_hazardous_asteroid": false,
    "close_approach_data": [
        {
            "close_approach_date": "2020-01-14",
            "close_approach_date_full": "2020-Jan-14 18:13",
            "epoch_date_close_approach": 1579025580000,
            "relative_velocity": {
                "kilometers_per_second": "19.4720519055",
                "kilometers_per_hour": "70099.3868597244",
                "miles_per_hour": "43557.032907366"
            },
            "miss_distance": {
                "astronomical": "0.0239333931",
                "lunar": "9.3100899159",
                "kilometers": "3580384.629632697",
                "miles": "2224747.8459253386"
            },
            "orbiting_body": "Earth"
        },
        {
            "close_approach_date": "2057-08-09",
            "close_approach_date_full": "2057-Aug-09 06:15",
            "epoch_date_close_approach": 2764563300000,
            "relative_velocity": {
                "kilometers_per_second": "21.5482723288",
                "kilometers_per_hour": "77573.7803837909",
                "miles_per_hour": "48201.3303723616"
            },
            "miss_distance": {
                "astronomical": "0.0794804132",
                "lunar": "30.9178807348",
                "kilometers": "11890100.521439884",
                "miles": "7388165.8702190392"
            },
            "orbiting_body": "Earth"
        },
        {
            "close_approach_date": "2059-01-07",
            "close_approach_date_full": "2059-Jan-07 22:37",
            "epoch_date_close_approach": 2809204620000,
            "relative_velocity": {
                "kilometers_per_second": "23.6562094497",
                "kilometers_per_hour": "85162.3540188739",
                "miles_per_hour": "52916.5749180053"
            },
            "miss_distance": {
                "astronomical": "0.1468733538",
                "lunar": "57.1337346282",
                "kilometers": "21971940.888236406",
                "miles": "13652730.9824021628"
            },
            "orbiting_body": "Earth"
        },
        {
            "close_approach_date": "2059-03-25",
            "close_approach_date_full": "2059-Mar-25 20:23",
            "epoch_date_close_approach": 2815849380000,
            "relative_velocity": {
                "kilometers_per_second": "19.4259445428",
                "kilometers_per_hour": "69933.4003542402",
                "miles_per_hour": "43453.8953478889"
            },
            "miss_distance": {
                "astronomical": "0.0214888821",
                "lunar": "8.3591751369",
                "kilometers": "3214690.990841127",
                "miles": "1997516.3556444726"
            },
            "orbiting_body": "Venus"
        }
    ],
    "orbital_data": {
        "orbit_id": "4",
        "orbit_determination_date": "2020-01-08 06:23:49",
        "first_observation_date": "2020-01-01",
        "last_observation_date": "2020-01-08",
        "data_arc_in_days": 7,
        "observations_used": 42,
        "orbit_uncertainty": "9",
        "minimum_orbit_intersection": ".00902613",
        "jupiter_tisserand_invariant": "4.484",
        "epoch_osculation": "2458851.5",
        "eccentricity": ".6068604080836143",
        "semi_major_axis": "1.422749196299142",
        "inclination": "5.672590874149955",
        "ascending_node_longitude": "307.5128896335316",
        "orbital_period": "619.8562011152163",
        "perihelion_distance": ".5593390384324105",
        "perihelion_argument": "264.384520646609",
        "aphelion_distance": "2.286159354165874",
        "perihelion_time": "2458913.653508379660",
        "mean_anomaly": "323.902493874513",
        "mean_motion": ".5807798637043637",
        "equinox": "J2000",
        "orbit_class": {
            "orbit_class_type": "APO",
            "orbit_class_description": "Near-Earth asteroid orbits which cross the Earth’s orbit similar to that of 1862 Apollo",
            "orbit_class_range": "a (semi-major axis) > 1.0 AU; q (perihelion) < 1.017 AU"
        }
    },
    "is_sentry_object": false
}